OBJECT_NAME,OBJECT_ID,EPOCH,MEAN_MOTION,ECCENTRICITY,INCLINATION,RA_OF_ASC_NODE,ARG_OF_PERICENTER,MEAN_ANOMALY,EPHEMERIS_TYPE,CLASSIFICATION_TYPE,NORAD_CAT_ID,ELEMENT_SET_NO,REV_AT_EPOCH,BSTAR,MEAN_MOTION_DOT,MEAN_MOTION_DDOT
ONEWEB-0473,2022-012AH,2026-07-17T06:18:24.255072,13.10376054,.00018732,87.8815,30.2820,90.1763,269.9579,0,U,51653,999,21324,-.15108707E-2,-.515E-5,0
ONEWEB-0474,2022-012AJ,2026-07-16T13:36:34.612128,13.10374712,.00015804,87.8824,30.4078,94.8697,265.2611,0,U,51654,999,21314,-.19249999E-2,-.659E-5,0
ONEWEB-0475,2022-012AK,2026-07-16T10:59:11.042016,13.17649203,.0001472,87.9149,0.0494,113.3559,246.7727,0,U,51655,999,21754,.16443E-3,.77E-6,0
ONEWEB-0490,2022-138A,2026-07-17T05:36:44.379072,13.19727009,.00020937,87.9192,298.9857,104.9221,255.2144,0,U,54113,999,18079,.27730155E-3,.124E-5,0
ONEWEB-0492,2022-138B,2026-07-17T06:13:07.019328,13.19723815,.00022637,87.9186,298.9798,103.4683,256.6702,0,U,54114,999,18080,.48588249E-4,.32E-6,0
ONEWEB-0495,2022-138C,2026-07-16T18:46:14.107872,13.19726424,.00022717,87.9186,299.0776,117.2279,242.9086,0,U,54115,999,18072,.79612446E-4,.45E-6,0
ONEWEB-0497,2022-138D,2026-07-17T05:59:28.070016,13.19723433,.00020478,87.9192,298.9787,103.1109,257.0252,0,U,54116,999,18077,.8469322E-4,.47E-6,0
ONEWEB-0499,2022-138E,2026-07-17T05:35:36.260448,13.19724645,.00019995,87.9185,298.9888,107.6868,252.4483,0,U,54117,999,18078,.13967951E-3,.69E-6,0
ONEWEB-0500,2022-138F,2026-07-17T05:39:01.587456,13.19726347,.00020984,87.9194,298.9848,98.8755,261.2615,0,U,54118,999,18079,.33588296E-3,.147E-5,0
ONEWEB-0501,2022-138G,2026-07-17T06:22:14.800512,13.19726020,.00021302,87.9194,298.9787,111.9332,248.2027,0,U,54119,999,18077,.1853713E-5,.14E-6,0
ONEWEB-0502,2022-138H,2026-07-17T06:01:44.337504,13.19723603,.00019342,87.9196,298.9702,107.5944,252.5400,0,U,54120,999,18079,.17180873E-3,.82E-6,0
ONEWEB-0503,2022-138J,2026-07-17T05:45:50.344128,13.19726674,.00017615,87.9197,298.9790,99.0461,261.0871,0,U,54121,999,18078,.21556108E-3,.99E-6,0
ONEWEB-0504,2022-138K,2026-07-16T20:21:45.847584,13.19726354,.00018971,87.9194,299.0616,107.2338,252.9002,0,U,54122,999,18074,.4735588E-5,.15E-6,0
ONEWEB-0505,2022-138L,2026-07-17T05:23:04.476768,13.19724085,.00020691,87.9190,298.9872,113.5799,246.5552,0,U,54123,999,18077,.25565676E-3,.115E-5,0
ONEWEB-0506,2022-138M,2026-07-16T19:40:50.476224,13.19725505,.00020409,87.9197,299.0651,110.1250,250.0102,0,U,54124,999,18071,-.1725351E-4,.6E-7,0
ONEWEB-0507,2022-138N,2026-07-17T05:16:15.892896,13.19727377,.00021071,87.9186,298.9950,106.0067,254.1298,0,U,54125,999,18081,.19288789E-3,.9E-6,0
ONEWEB-0508,2022-138P,2026-07-17T05:11:43.622304,13.19726652,.0002282,87.9186,298.9953,110.3431,249.7947,0,U,54126,999,18079,.22352796E-3,.102E-5,0
ONEWEB-0509,2022-138Q,2026-07-16T19:29:26.736864,13.19724110,.00020549,87.9198,299.0682,105.3011,254.8349,0,U,54127,999,18071,-.20074272E-4,.5E-7,0
ONEWEB-0510,2022-138R,2026-07-17T03:09:38.869632,13.20770237,.00019676,87.9183,268.4688,85.5602,274.5756,0,U,54128,999,18323,.93913937E-4,.51E-6,0
ONEWEB-0511,2022-138S,2026-07-17T06:19:56.646048,13.19723865,.00017705,87.9191,298.9800,104.2853,255.8476,0,U,54129,999,18080,-.15838248E-4,.7E-7,0
ONEWEB-0512,2022-138T,2026-07-17T06:08:34.015200,13.19726540,.00019133,87.9185,298.9847,110.6985,249.4353,0,U,54130,999,18077,.84133784E-4,.47E-6,0
ONEWEB-0513,2022-138U,2026-07-17T05:58:51.196224,13.20269437,.00016694,87.9193,298.9267,127.2701,232.8584,0,U,54131,999,18068,.10884742E-3,.57E-6,0
ONEWEB-0514,2022-138V,2026-07-17T06:31:19.331328,13.19726664,.00019661,87.9193,298.9778,97.5937,262.5419,0,U,54132,999,18079,.24705673E-4,.23E-6,0
ONEWEB-0515,2022-138W,2026-07-17T04:39:21.671712,13.20772083,.00027301,87.9191,268.4524,83.3643,276.7801,0,U,54133,999,18326,.53604676E-4,.35E-6,0
ONEWEB-0516,2022-138X,2026-07-17T05:54:55.706112,13.19723997,.0002156,87.9188,298.9869,102.1450,257.9924,0,U,54134,999,18079,.20253729E-3,.94E-6,0
ONEWEB-0517,2022-138Y,2026-07-16T20:19:29.365824,13.19726138,.00017261,87.9192,299.0609,98.2630,261.8698,0,U,54135,999,18074,.79823355E-4,.45E-6,0
ONEWEB-0518,2022-138Z,2026-07-17T05:52:39.733248,13.19724332,.0002265,87.9184,298.9893,101.8358,258.3029,0,U,54136,999,18079,.98344593E-4,.52E-6,0
ONEWEB-0519,2022-138AA,2026-07-16T19:33:58.938336,13.19723535,.00018172,87.9194,299.0682,98.9520,261.1818,0,U,54137,999,18074,-.14750239E-3,-.46E-6,0
ONEWEB-0520,2022-138AB,2026-07-17T05:29:55.063392,13.19726674,.00020992,87.9194,298.9862,107.8788,252.2574,0,U,54138,999,18078,.21335874E-3,.98E-6,0
ONEWEB-0521,2022-138AC,2026-07-17T06:17:39.444576,13.19727235,.00018094,87.9194,298.9687,97.9620,262.1718,0,U,54139,999,18073,-.29086728E-4,.1E-7,0
