ONEWEB-0473             
1 51653U 22012AH  26198.26278073 -.00000515  00000+0 -15109-2 0  9998
2 51653  87.8815  30.2820 0001873  90.1763 269.9579 13.10376054213248
ONEWEB-0474             
1 51654U 22012AJ  26197.56706727 -.00000659  00000+0 -19250-2 0  9993
2 51654  87.8824  30.4078 0001580  94.8697 265.2611 13.10374712213142
ONEWEB-0475             
1 51655U 22012AK  26197.45776669  .00000077  00000+0  16443-3 0  9998
2 51655  87.9149   0.0494 0001472 113.3559 246.7727 13.17649203217540
ONEWEB-0490             
1 54113U 22138A   26198.23384698  .00000124  00000+0  27730-3 0  9997
2 54113  87.9192 298.9857 0002093 104.9221 255.2144 13.19727009180790
ONEWEB-0492             
1 54114U 22138B   26198.25910902  .00000032  00000+0  48588-4 0  9996
2 54114  87.9186 298.9798 0002263 103.4683 256.6702 13.19723815180801
ONEWEB-0495             
1 54115U 22138C   26197.78210773  .00000045  00000+0  79612-4 0  9999
2 54115  87.9186 299.0776 0002271 117.2279 242.9086 13.19726424180726
ONEWEB-0497             
1 54116U 22138D   26198.24963044  .00000047  00000+0  84693-4 0  9995
2 54116  87.9192 298.9787 0002047 103.1109 257.0252 13.19723433180775
ONEWEB-0499             
1 54117U 22138E   26198.23305857  .00000069  00000+0  13968-3 0  9997
2 54117  87.9185 298.9888 0001999 107.6868 252.4483 13.19724645180788
ONEWEB-0500             
1 54118U 22138F   26198.23543504  .00000147  00000+0  33588-3 0  9998
2 54118  87.9194 298.9848 0002098  98.8755 261.2615 13.19726347180799
ONEWEB-0501             
1 54119U 22138G   26198.26544908  .00000014  00000+0  18537-5 0  9993
2 54119  87.9194 298.9787 0002130 111.9332 248.2027 13.19726020180775
ONEWEB-0502             
1 54120U 22138H   26198.25120761  .00000082  00000+0  17181-3 0  9998
2 54120  87.9196 298.9702 0001934 107.5944 252.5400 13.19723603180796
ONEWEB-0503             
1 54121U 22138J   26198.24016602  .00000099  00000+0  21556-3 0  9995
2 54121  87.9197 298.9790 0001761  99.0461 261.0871 13.19726674180789
ONEWEB-0504             
1 54122U 22138K   26197.84844731  .00000015  00000+0  47356-5 0  9999
2 54122  87.9194 299.0616 0001897 107.2338 252.9002 13.19726354180747
ONEWEB-0505             
1 54123U 22138L   26198.22435737  .00000115  00000+0  25566-3 0  9993
2 54123  87.9190 298.9872 0002069 113.5799 246.5552 13.19724085180770
ONEWEB-0506             
1 54124U 22138M   26197.82002866  .00000006  00000+0 -17254-4 0  9998
2 54124  87.9197 299.0651 0002040 110.1250 250.0102 13.19725505180712
ONEWEB-0507             
1 54125U 22138N   26198.21962839  .00000090  00000+0  19289-3 0  9999
2 54125  87.9186 298.9950 0002107 106.0067 254.1298 13.19727377180816
ONEWEB-0508             
1 54126U 22138P   26198.21647711  .00000102  00000+0  22353-3 0  9999
2 54126  87.9186 298.9953 0002282 110.3431 249.7947 13.19726652180790
ONEWEB-0509             
1 54127U 22138Q   26197.81211501  .00000005  00000+0 -20074-4 0  9991
2 54127  87.9198 299.0682 0002054 105.3011 254.8349 13.19724110180712
ONEWEB-0510             
1 54128U 22138R   26198.13169988  .00000051  00000+0  93914-4 0  9992
2 54128  87.9183 268.4688 0001967  85.5602 274.5756 13.20770237183234
ONEWEB-0511             
1 54129U 22138S   26198.26385007  .00000007  00000+0 -15838-4 0  9990
2 54129  87.9191 298.9800 0001770 104.2853 255.8476 13.19723865180801
ONEWEB-0512             
1 54130U 22138T   26198.25594925  .00000047  00000+0  84134-4 0  9990
2 54130  87.9185 298.9847 0001913 110.6985 249.4353 13.19726540180775
ONEWEB-0513             
1 54131U 22138U   26198.24920366  .00000057  00000+0  10885-3 0  9994
2 54131  87.9193 298.9267 0001669 127.2701 232.8584 13.20269437180680
ONEWEB-0514             
1 54132U 22138V   26198.27175152  .00000023  00000+0  24706-4 0  9994
2 54132  87.9193 298.9778 0001966  97.5937 262.5419 13.19726664180795
ONEWEB-0515             
1 54133U 22138W   26198.19400083  .00000035  00000+0  53605-4 0  9993
2 54133  87.9191 268.4524 0002730  83.3643 276.7801 13.20772083183267
ONEWEB-0516             
1 54134U 22138X   26198.24647808  .00000094  00000+0  20254-3 0  9996
2 54134  87.9188 298.9869 0002156 102.1450 257.9924 13.19723997180792
ONEWEB-0517             
1 54135U 22138Y   26197.84686766  .00000045  00000+0  79823-4 0  9991
2 54135  87.9192 299.0609 0001726  98.2630 261.8698 13.19726138180746
ONEWEB-0518             
1 54136U 22138Z   26198.24490432  .00000052  00000+0  98345-4 0  9998
2 54136  87.9184 298.9893 0002265 101.8358 258.3029 13.19724332180796
ONEWEB-0519             
1 54137U 22138AA  26197.81526549 -.00000046  00000+0 -14750-3 0  9992
2 54137  87.9194 299.0682 0001817  98.9520 261.1818 13.19723535180742
ONEWEB-0520             
1 54138U 22138AB  26198.22910953  .00000098  00000+0  21336-3 0  9998
2 54138  87.9194 298.9862 0002099 107.8788 252.2574 13.19726674180781
ONEWEB-0521             
1 54139U 22138AC  26198.26226209  .00000001  00000+0 -29087-4 0  9994
2 54139  87.9194 298.9687 0001809  97.9620 262.1718 13.19727235180738
